{
  "type": "FeatureCollection",
  "features": [
    {
      "type": "Feature",
      "properties": {
        "norad_id": 29930,
        "name": "FENGYUN 1C DEB",
        "group": "fengyun-1c-debris",
        "lat": 28.487564052961307,
        "lon": 50.5120282413354,
        "alt_km": 815.154548958044,
        "timestamp": "2025-12-09T09:46:47.917856+00:00",
        "meta_object_name": "FENGYUN 1C DEB",
        "meta_object_id": "1999-025JC",
        "meta_epoch": "2025-12-08T16:29:44.554272",
        "meta_mean_motion": 14.2081053,
        "meta_eccentricity": 0.01646292,
        "meta_inclination": 99.0445,
        "meta_ra_of_asc_node": 224.8162,
        "meta_arg_of_pericenter": 65.0829,
        "meta_mean_anomaly": 2.4596,
        "meta_ephemeris_type": 0,
        "meta_classification_type": "U",
        "meta_norad_cat_id": 29930,
        "meta_element_set_no": 999,
        "meta_rev_at_epoch": 97833,
        "meta_bstar": 0.00042389468,
        "meta_mean_motion_dot": 1.003e-05,
        "meta_mean_motion_ddot": 0,
        "tle_line1": "1 29930U 99025JC  25342.68732123  .00001003  00000+0  42389-3 0  9998",
        "tle_line2": "2 29930  99.0445 224.8162 0164629  65.0829   2.4596 14.20810530978339"
      },
      "geometry": {
        "type": "Point",
        "coordinates": [
          50.5120282413354,
          28.487564052961307
        ]
      }
    },
    {
      "type": "Feature",
      "properties": {
        "norad_id": 29931,
        "name": "FENGYUN 1C DEB",
        "group": "fengyun-1c-debris",
        "lat": -6.785354478573017,
        "lon": 19.863962669979156,
        "alt_km": 891.8936625751148,
        "timestamp": "2025-12-09T09:46:47.917867+00:00",
        "meta_object_name": "FENGYUN 1C DEB",
        "meta_object_id": "1999-025JD",
        "meta_epoch": "2025-12-08T20:59:15.394272",
        "meta_mean_motion": 14.038894,
        "meta_eccentricity": 0.00326391,
        "meta_inclination": 98.8598,
        "meta_ra_of_asc_node": 18.2811,
        "meta_arg_of_pericenter": 104.1512,
        "meta_mean_anomaly": 77.0789,
        "meta_ephemeris_type": 0,
        "meta_classification_type": "U",
        "meta_norad_cat_id": 29931,
        "meta_element_set_no": 999,
        "meta_rev_at_epoch": 96758,
        "meta_bstar": 0.00018648703,
        "meta_mean_motion_dot": 2.53e-06,
        "meta_mean_motion_ddot": 0,
        "tle_line1": "1 29931U 99025JD  25342.87448373  .00000253  00000+0  18649-3 0  9999",
        "tle_line2": "2 29931  98.8598  18.2811 0032639 104.1512  77.0789 14.03889400967581"
      },
      "geometry": {
        "type": "Point",
        "coordinates": [
          19.863962669979156,
          -6.785354478573017
        ]
      }
    },
    {
      "type": "Feature",
      "properties": {
        "norad_id": 29932,
        "name": "FENGYUN 1C DEB",
        "group": "fengyun-1c-debris",
        "lat": -66.77918459090391,
        "lon": 14.932996862324153,
        "alt_km": 867.1533426619726,
        "timestamp": "2025-12-09T09:46:47.917878+00:00",
        "meta_object_name": "FENGYUN 1C DEB",
        "meta_object_id": "1999-025JE",
        "meta_epoch": "2025-12-08T07:04:36.613344",
        "meta_mean_motion": 14.16755357,
        "meta_eccentricity": 0.0038621,
        "meta_inclination": 98.6342,
        "meta_ra_of_asc_node": 353.1117,
        "meta_arg_of_pericenter": 82.8541,
        "meta_mean_anomaly": 297.4832,
        "meta_ephemeris_type": 0,
        "meta_classification_type": "U",
        "meta_norad_cat_id": 29932,
        "meta_element_set_no": 999,
        "meta_rev_at_epoch": 97521,
        "meta_bstar": 0.00050621811,
        "meta_mean_motion_dot": 9.78e-06,
        "meta_mean_motion_ddot": 0,
        "tle_line1": "1 29932U 99025JE  25342.29486821  .00000978  00000+0  50622-3 0  9997",
        "tle_line2": "2 29932  98.6342 353.1117 0038621  82.8541 297.4832 14.16755357975211"
      },
      "geometry": {
        "type": "Point",
        "coordinates": [
          14.932996862324153,
          -66.77918459090391
        ]
      }
    },
    {
      "type": "Feature",
      "properties": {
        "norad_id": 29933,
        "name": "FENGYUN 1C DEB",
        "group": "fengyun-1c-debris",
        "lat": 35.838951742340534,
        "lon": -87.22199150438715,
        "alt_km": 675.139073975316,
        "timestamp": "2025-12-09T09:46:47.917889+00:00",
        "meta_object_name": "FENGYUN 1C DEB",
        "meta_object_id": "1999-025JF",
        "meta_epoch": "2025-12-08T18:58:40.106208",
        "meta_mean_motion": 14.65652067,
        "meta_eccentricity": 0.00040895,
        "meta_inclination": 98.7493,
        "meta_ra_of_asc_node": 85.7354,
        "meta_arg_of_pericenter": 343.7348,
        "meta_mean_anomaly": 147.478,
        "meta_ephemeris_type": 0,
        "meta_classification_type": "U",
        "meta_norad_cat_id": 29933,
        "meta_element_set_no": 999,
        "meta_rev_at_epoch": 98447,
        "meta_bstar": 0.0052655915,
        "meta_mean_motion_dot": 0.00028696,
        "meta_mean_motion_ddot": 0,
        "tle_line1": "1 29933U 99025JF  25342.79074197  .00028696  00000+0  52656-2 0  9997",
        "tle_line2": "2 29933  98.7493  85.7354 0004089 343.7348 147.4780 14.65652067984478"
      },
      "geometry": {
        "type": "Point",
        "coordinates": [
          -87.22199150438715,
          35.838951742340534
        ]
      }
    },
    {
      "type": "Feature",
      "properties": {
        "norad_id": 29934,
        "name": "FENGYUN 1C DEB",
        "group": "fengyun-1c-debris",
        "lat": 78.38908298419925,
        "lon": -100.26552055724342,
        "alt_km": 742.3505069067587,
        "timestamp": "2025-12-09T09:46:47.917899+00:00",
        "meta_object_name": "FENGYUN 1C DEB",
        "meta_object_id": "1999-025JG",
        "meta_epoch": "2025-12-08T15:16:59.484576",
        "meta_mean_motion": 14.63729041,
        "meta_eccentricity": 0.0100574,
        "meta_inclination": 98.9038,
        "meta_ra_of_asc_node": 29.1752,
        "meta_arg_of_pericenter": 264.9493,
        "meta_mean_anomaly": 94.0221,
        "meta_ephemeris_type": 0,
        "meta_classification_type": "U",
        "meta_norad_cat_id": 29934,
        "meta_element_set_no": 999,
        "meta_rev_at_epoch": 99712,
        "meta_bstar": 0.0012623,
        "meta_mean_motion_dot": 7.021e-05,
        "meta_mean_motion_ddot": 0,
        "tle_line1": "1 29934U 99025JG  25342.63679959  .00007021  00000+0  12623-2 0  9997",
        "tle_line2": "2 29934  98.9038  29.1752 0100574 264.9493  94.0221 14.63729041997129"
      },
      "geometry": {
        "type": "Point",
        "coordinates": [
          -100.26552055724342,
          78.38908298419925
        ]
      }
    },
    {
      "type": "Feature",
      "properties": {
        "norad_id": 29935,
        "name": "FENGYUN 1C DEB",
        "group": "fengyun-1c-debris",
        "lat": 80.23989932808956,
        "lon": -74.28750131396643,
        "alt_km": 907.5097636765513,
        "timestamp": "2025-12-09T09:46:47.917910+00:00",
        "meta_object_name": "FENGYUN 1C DEB",
        "meta_object_id": "1999-025JH",
        "meta_epoch": "2025-12-08T16:55:41.573856",
        "meta_mean_motion": 14.14235379,
        "meta_eccentricity": 0.01499927,
        "meta_inclination": 98.4619,
        "meta_ra_of_asc_node": 45.115,
        "meta_arg_of_pericenter": 227.7831,
        "meta_mean_anomaly": 255.553,
        "meta_ephemeris_type": 0,
        "meta_classification_type": "U",
        "meta_norad_cat_id": 29935,
        "meta_element_set_no": 999,
        "meta_rev_at_epoch": 97485,
        "meta_bstar": 0.00022778889,
        "meta_mean_motion_dot": 4.42e-06,
        "meta_mean_motion_ddot": 0,
        "tle_line1": "1 29935U 99025JH  25342.70534229  .00000442  00000+0  22779-3 0  9990",
        "tle_line2": "2 29935  98.4619  45.1150 0149992 227.7831 255.5530 14.14235379974854"
      },
      "geometry": {
        "type": "Point",
        "coordinates": [
          -74.28750131396643,
          80.23989932808956
        ]
      }
    },
    {
      "type": "Feature",
      "properties": {
        "norad_id": 29936,
        "name": "FENGYUN 1C DEB",
        "group": "fengyun-1c-debris",
        "lat": -62.47231071108479,
        "lon": -100.21850297674771,
        "alt_km": 724.9974202673338,
        "timestamp": "2025-12-09T09:46:47.917921+00:00",
        "meta_object_name": "FENGYUN 1C DEB",
        "meta_object_id": "1999-025JJ",
        "meta_epoch": "2025-12-08T20:56:19.724064",
        "meta_mean_motion": 14.35303456,
        "meta_eccentricity": 0.01137863,
        "meta_inclination": 98.6562,
        "meta_ra_of_asc_node": 96.2401,
        "meta_arg_of_pericenter": 198.4988,
        "meta_mean_anomaly": 161.2044,
        "meta_ephemeris_type": 0,
        "meta_classification_type": "U",
        "meta_norad_cat_id": 29936,
        "meta_element_set_no": 999,
        "meta_rev_at_epoch": 98875,
        "meta_bstar": 0.00034382441,
        "meta_mean_motion_dot": 1.013e-05,
        "meta_mean_motion_ddot": 0,
        "tle_line1": "1 29936U 99025JJ  25342.87245051  .00001013  00000+0  34382-3 0  9999",
        "tle_line2": "2 29936  98.6562  96.2401 0113786 198.4988 161.2044 14.35303456988751"
      },
      "geometry": {
        "type": "Point",
        "coordinates": [
          -100.21850297674771,
          -62.47231071108479
        ]
      }
    }
  ]
}